DMSP 5D-3 F16 (USA 172) 
1 28054U 03048A   26197.60107346 -.00000058  00000+0 -66691-5 0  9993
2 28054  98.9897 221.6230 0008073  67.6665  44.8503 14.14484772173648
METEOSAT-9 (MSG-2)      
1 28912U 05049B   26197.62531973  .00000110  00000+0  00000+0 0  9991
2 28912   9.4264  53.8734 0002257 356.5374 154.8210  1.00272776  7299
DMSP 5D-3 F17 (USA 191) 
1 29522U 06050A   26197.58555087 -.00000041  00000+0  13858-5 0  9994
2 29522  98.7388 203.5551 0009649 338.7934  21.2839 14.14996199 16589
FENGYUN 3A              
1 32958U 08026A   26197.43890172  .00000023  00000+0  31374-4 0  9998
2 32958  98.6886 137.7258 0009636  48.7192 311.4813 14.19576612939556
EWS-G3 (GOES 14)        
1 35491U 09033A   26197.61804538 -.00000370  00000+0  00000+0 0  9996
2 35491   1.7637  82.6751 0001970  40.1179 158.3320  1.00097452  6888
DMSP 5D-3 F18 (USA 210) 
1 35951U 09057A   26197.62949068  .00000168  00000+0  10995-3 0  9994
2 35951  98.9057 178.3375 0011314 161.4918 198.6669 14.14912259863759
EWS-G2 (GOES 15)        
1 36411U 10008A   26197.49627498  .00000011  00000+0  00000+0 0  9998
2 36411   1.3565  82.4425 0005279  54.2180  39.6201  1.00268583 59935
COMS 1                  
1 36744U 10032A   26197.47521487 -.00000250  00000+0  00000+0 0  9999
2 36744   4.8786  75.0015 0011245  14.9725 332.3841  0.99167627 51375
FENGYUN 3B              
1 37214U 10059A   26197.59927882 -.00000028  00000+0  85705-5 0  9997
2 37214  98.9603 243.7362 0023182 102.6212  50.3613 14.14846788811583
SUOMI NPP               
1 37849U 11061A   26197.59220368  .00000015  00000+0  28334-4 0  9999
2 37849  98.7955 138.2684 0000809 206.1364 153.9771 14.19522696762617
METEOSAT-10 (MSG-3)     
1 38552U 12035B   26197.26991634 -.00000020  00000+0  00000+0 0  9990
2 38552   4.7388  60.8759 0001194  16.4292 314.0124  1.00271111 51149
METOP-B                 
1 38771U 12049A   26197.61299479  .00000039  00000+0  37851-4 0  9993
2 38771  98.6489 248.5228 0001124 247.2122 112.8937 14.21446642717449
INSAT-3D                
1 39216U 13038B   26197.43814667 -.00000351  00000+0  00000+0 0  9998
2 39216   1.9997  82.1690 0000536  76.4436  62.8721  1.00268001 47373
FENGYUN 3C              
1 39260U 13052A   26197.58526891  .00000018  00000+0  30383-4 0  9999
2 39260  98.5000 170.1134 0013613 301.6526  58.3320 14.15760974662726
METEOR-M 2              
1 40069U 14037A   26197.56854684 -.00000087  00000+0 -20340-4 0  9994
2 40069  98.5129 172.2694 0005092 322.7153  37.3671 14.21468789623496
HIMAWARI-8              
1 40267U 14060A   26197.58294321 -.00000286  00000+0  00000+0 0  9994
2 40267   0.0179  20.9303 0001133 146.1228 117.8864  1.00271092 43056
FENGYUN 2G              
1 40367U 14090A   26197.57477694 -.00000315  00000+0  00000+0 0  9996
2 40367   5.7108  72.4574 0004208 172.7997 355.4238  1.00280356 42290
METEOSAT-11 (MSG-4)     
1 40732U 15034A   26197.27173635  .00000049  00000+0  00000+0 0  9999
2 40732   3.2716  70.9243 0002144 354.4417 335.8161  1.00272196  7508
ELEKTRO-L 2             
1 41105U 15074A   26197.40961902 -.00000131  00000+0  00000+0 0  9998
2 41105   6.7654  70.1601 0001032 213.8580 143.1853  1.00272062 38791
SENTINEL-3A             
1 41335U 16011A   26197.60097103  .00000043  00000+0  35941-4 0  9998
2 41335  98.6237 264.5601 0001356  89.5036 270.6300 14.26740004542257
INSAT-3DR               
1 41752U 16054A   26197.56966360 -.00000087  00000+0  00000+0 0  9995
2 41752   0.0734  88.7661 0010529 181.0767 303.6272  1.00270849 36113
HIMAWARI-9              
1 41836U 16064A   26197.58294321  .00000000  00000+0  00000+0 0  9996
2 41836   0.0078 325.2418 0002304 211.5319 108.2387  1.00264890 35507
GOES 16                 
1 41866U 16071A   26197.60564999 -.00000102  00000+0  00000+0 0  9995
2 41866   0.4077  85.4567 0000548  90.3097 232.0048  1.00271098 35392
FENGYUN 4A              
1 41882U 16077A   26197.61819094 -.00000369  00000+0  00000+0 0  9994
2 41882   2.3952  79.9427 0008465 159.5611  41.2184  1.00267347 35227
CYGFM05                 
1 41884U 16078A   26197.02678188  .00015884  00000+0  20609-3 0  9997
2 41884  34.9569  69.4362 0005792  45.5775 314.5423 15.57880539533250
CYGFM04                 
1 41885U 16078B   26197.60678140  .00021879  00000+0  23152-3 0  9997
2 41885  34.9325  31.7412 0004109 101.8976 258.2211 15.63140212533601
CYGFM02                 
1 41886U 16078C   26197.61214109  .00026963  00000+0  24987-3 0  9996
2 41886  34.9407  25.3369 0004901 104.7437 255.3834 15.66434514533789
CYGFM01                 
1 41887U 16078D   26197.06657207  .00016315  00000+0  20595-3 0  9997
2 41887  34.9396  69.9893 0005819  38.7960 321.3182 15.58601671533218
CYGFM08                 
1 41888U 16078E   26197.61395879  .00020346  00000+0  22942-3 0  9990
2 41888  34.9432  45.1247 0006033  84.2287 275.9126 15.61513385533575
CYGFM07                 
1 41890U 16078G   26197.63510011  .00020258  00000+0  22755-3 0  9996
2 41890  34.9449  33.2984 0004546 101.7983 258.3253 15.61623005533608
CYGFM03                 
1 41891U 16078H   26197.60630927  .00019987  00000+0  22465-3 0  9998
2 41891  34.9404  35.4199 0004384  82.8284 277.2940 15.61608133533579
