OBJECT_NAME,OBJECT_ID,EPOCH,MEAN_MOTION,ECCENTRICITY,INCLINATION,RA_OF_ASC_NODE,ARG_OF_PERICENTER,MEAN_ANOMALY,EPHEMERIS_TYPE,CLASSIFICATION_TYPE,NORAD_CAT_ID,ELEMENT_SET_NO,REV_AT_EPOCH,BSTAR,MEAN_MOTION_DOT,MEAN_MOTION_DDOT
DMSP 5D-3 F16 (USA 172),2003-048A,2026-07-16T14:25:32.746944,14.14484772,.00080735,98.9897,221.6230,67.6665,44.8503,0,U,28054,999,17364,-.6669148E-5,-.58E-6,0
METEOSAT-9 (MSG-2),2005-049B,2026-07-16T15:00:27.624672,1.00272776,.00022573,9.4264,53.8734,356.5374,154.8210,0,U,28912,999,729,0,.11E-5,0
DMSP 5D-3 F17 (USA 191),2006-050A,2026-07-16T14:03:11.595168,14.14996199,.00096494,98.7388,203.5551,338.7934,21.2839,0,U,29522,999,1658,.1385775E-5,-.41E-6,0
FENGYUN 3A,2008-026A,2026-07-16T10:32:01.108608,14.19576612,.00096365,98.6886,137.7258,48.7192,311.4813,0,U,32958,999,93955,.31373568E-4,.23E-6,0
EWS-G3 (GOES 14),2009-033A,2026-07-16T14:49:59.120832,1.00097452,.00019709,1.7637,82.6751,40.1179,158.3320,0,U,35491,999,688,0,-.37E-5,0
DMSP 5D-3 F18 (USA 210),2009-057A,2026-07-16T15:06:27.994752,14.14912259,.00113146,98.9057,178.3375,161.4918,198.6669,0,U,35951,999,86375,.10995349E-3,.168E-5,0
EWS-G2 (GOES 15),2010-008A,2026-07-16T11:54:38.158272,1.00268583,.00052793,1.3565,82.4425,54.2180,39.6201,0,U,36411,999,5993,0,.11E-6,0
COMS 1,2010-032A,2026-07-16T11:24:18.564768,0.99167627,.00112458,4.8786,75.0015,14.9725,332.3841,0,U,36744,999,5137,0,-.25E-5,0
FENGYUN 3B,2010-059A,2026-07-16T14:22:57.690048,14.14846788,.00231828,98.9603,243.7362,102.6212,50.3613,0,U,37214,999,81158,.8570523E-5,-.28E-6,0
SUOMI NPP,2011-061A,2026-07-16T14:12:46.397952,14.19522696,.00008098,98.7955,138.2684,206.1364,153.9771,0,U,37849,999,76261,.28334455E-4,.15E-6,0
METEOSAT-10 (MSG-3),2012-035B,2026-07-16T06:28:40.771776,1.00271111,.00011946,4.7388,60.8759,16.4292,314.0124,0,U,38552,999,5114,0,-.2E-6,0
METOP-B,2012-049A,2026-07-16T14:42:42.749856,14.21446642,.0001124,98.6489,248.5228,247.2122,112.8937,0,U,38771,999,71744,.3785121E-4,.39E-6,0
INSAT-3D,2013-038B,2026-07-16T10:30:55.872288,1.00268001,.0000536,1.9997,82.1690,76.4436,62.8721,0,U,39216,999,4737,0,-.351E-5,0
FENGYUN 3C,2013-052A,2026-07-16T14:02:47.233824,14.15760974,.00136134,98.5000,170.1134,301.6526,58.3320,0,U,39260,999,66272,.30383386E-4,.18E-6,0
METEOR-M 2,2014-037A,2026-07-16T13:38:42.446976,14.21468789,.00050924,98.5129,172.2694,322.7153,37.3671,0,U,40069,999,62349,-.20340387E-4,-.87E-6,0
HIMAWARI-8,2014-060A,2026-07-16T13:59:26.293344,1.00271092,.00011334,0.0179,20.9303,146.1228,117.8864,0,U,40267,999,4305,0,-.286E-5,0
FENGYUN 2G,2014-090A,2026-07-16T13:47:40.727616,1.00280356,.00042087,5.7108,72.4574,172.7997,355.4238,0,U,40367,999,4229,0,-.315E-5,0
METEOSAT-11 (MSG-4),2015-034A,2026-07-16T06:31:18.020640,1.00272196,.00021445,3.2716,70.9243,354.4417,335.8161,0,U,40732,999,750,0,.49E-6,0
ELEKTRO-L 2,2015-074A,2026-07-16T09:49:51.083328,1.00272062,.0001032,6.7654,70.1601,213.8580,143.1853,0,U,41105,999,3879,0,-.131E-5,0
SENTINEL-3A,2016-011A,2026-07-16T14:25:23.896992,14.26740004,.00013561,98.6237,264.5601,89.5036,270.6300,0,U,41335,999,54225,.35941244E-4,.43E-6,0
INSAT-3DR,2016-054A,2026-07-16T13:40:18.935040,1.00270849,.00105299,0.0734,88.7661,181.0767,303.6272,0,U,41752,999,3611,0,-.87E-6,0
HIMAWARI-9,2016-064A,2026-07-16T13:59:26.293344,1.00264890,.00023042,0.0078,325.2418,211.5319,108.2387,0,U,41836,999,3550,0,0,0
GOES 16,2016-071A,2026-07-16T14:32:08.159136,1.00271098,.00005481,0.4077,85.4567,90.3097,232.0048,0,U,41866,999,3539,0,-.102E-5,0
FENGYUN 4A,2016-077A,2026-07-16T14:50:11.697216,1.00267347,.00084652,2.3952,79.9427,159.5611,41.2184,0,U,41882,999,3522,0,-.369E-5,0
CYGFM05,2016-078A,2026-07-16T00:38:33.954432,15.57880539,.00057923,34.9569,69.4362,45.5775,314.5423,0,U,41884,999,53325,.20608672E-3,.15884E-3,0
CYGFM04,2016-078B,2026-07-16T14:33:45.912960,15.63140212,.00041094,34.9325,31.7412,101.8976,258.2211,0,U,41885,999,53360,.23152093E-3,.21879E-3,0
CYGFM02,2016-078C,2026-07-16T14:41:28.990176,15.66434514,.00049019,34.9407,25.3369,104.7437,255.3834,0,U,41886,999,53378,.24987065E-3,.26963E-3,0
CYGFM01,2016-078D,2026-07-16T01:35:51.826848,15.58601671,.00058194,34.9396,69.9893,38.7960,321.3182,0,U,41887,999,53321,.20595206E-3,.16315E-3,0
CYGFM08,2016-078E,2026-07-16T14:44:06.039456,15.61513385,.00060334,34.9432,45.1247,84.2287,275.9126,0,U,41888,999,53357,.22941805E-3,.20346E-3,0
CYGFM07,2016-078G,2026-07-16T15:14:32.649504,15.61623005,.0004546,34.9449,33.2984,101.7983,258.3253,0,U,41890,999,53360,.22754681E-3,.20258E-3,0
CYGFM03,2016-078H,2026-07-16T14:33:05.120928,15.61608133,.00043844,34.9404,35.4199,82.8284,277.2940,0,U,41891,999,53357,.22465159E-3,.19987E-3,0
